OBJECT_NAME,OBJECT_ID,EPOCH,MEAN_MOTION,ECCENTRICITY,INCLINATION,RA_OF_ASC_NODE,ARG_OF_PERICENTER,MEAN_ANOMALY,EPHEMERIS_TYPE,CLASSIFICATION_TYPE,NORAD_CAT_ID,ELEMENT_SET_NO,REV_AT_EPOCH,BSTAR,MEAN_MOTION_DOT,MEAN_MOTION_DDOT
STARLINK-30548,2023-156U,2026-06-08T03:32:28.637088,15.34401433,0.00013304000000000001,53.1623,107.2233,103.5062,256.6089,0,U,58046,999,14884,-1.7927283e-05,-9.82e-06,0.0
STARLINK-30529,2023-156V,2026-06-08T02:51:56.727648,15.30191903,0.00014638,53.1612,108.4399,96.582,263.5347,0,U,58047,999,14882,-1.7811018000000002e-05,-8.869999999999998e-06,0.0
STARLINK-30554,2023-156W,2026-06-08T03:25:14.393280,15.30188876,0.00010678,53.1604,107.8942,77.6248,282.4872,0,U,58048,999,14883,-3.5945899e-05,-1.4230000000000001e-05,0.0
STARLINK-30568,2023-158A,2026-06-07T21:54:13.337568,15.27587741,7.569e-05,43.0078,237.9305,227.6807,132.3981,0,U,58051,999,14735,0.00010303373,2.5750000000000002e-05,0.0
STARLINK-30575,2023-158B,2026-06-07T12:23:43.539360,15.27574275,0.00020913,43.0003,240.1134,109.751,250.3567,0,U,58052,999,14730,-1.4984472e-05,-6.75e-06,0.0
STARLINK-30577,2023-158C,2026-06-07T22:36:34.644960,15.27560188,9.078e-05,43.002,237.2688,250.3822,109.6932,0,U,58053,999,14737,-7.112731300000001e-05,-2.2170000000000003e-05,0.0
STARLINK-30566,2023-158D,2026-06-07T22:25:29.925696,15.27695717,0.00031338,43.0001,237.2394,68.6456,291.473,0,U,58054,999,14737,0.0047406497,0.00133041,0.0
STARLINK-30544,2023-158E,2026-06-07T22:08:49.730784,15.27560189,8.464000000000002e-05,42.9981,237.1443,252.8825,107.1934,0,U,58055,999,14737,-5.1780763e-05,-1.6850000000000003e-05,0.0
STARLINK-30553,2023-158F,2026-06-07T22:29:11.318784,15.2756137,9.727000000000001e-05,43.0019,237.2562,322.4319,37.6464,0,U,58056,999,14737,-6.5594939e-05,-2.065e-05,0.0
STARLINK-30541,2023-158G,2026-06-07T22:19:54.871680,15.27579287,0.00016235000000000002,43.0008,237.2058,256.0286,104.0385,0,U,58057,999,14737,9.042725e-06,-1.3e-07,0.0
STARLINK-30573,2023-158H,2026-06-07T22:34:42.698208,15.27579001,0.00022884,43.0026,237.2758,253.2168,106.8433,0,U,58058,999,14737,3.9244567000000003e-05,8.18e-06,0.0
STARLINK-30582,2023-158J,2026-06-07T22:03:16.625952,15.27560915,9.503e-05,43.001,237.1166,263.3632,96.7111,0,U,58059,999,14737,-5.9664841000000004e-05,-1.9020000000000004e-05,0.0
STARLINK-30558,2023-158K,2026-06-07T12:12:36.921024,15.27587003,7.647e-05,43.0038,240.0451,144.3717,215.7186,0,U,58060,999,14730,3.8639246e-05,8.02e-06,0.0
STARLINK-30579,2023-158L,2026-06-07T20:15:12.869280,15.27585424,8.771000000000001e-05,43.002,212.101,291.764,68.3118,0,U,58061,999,14765,5.971100500000001e-05,1.3820000000000002e-05,0.0
STARLINK-30588,2023-158M,2026-06-05T12:36:28.443744,15.27586705,0.00013495,43.0042,250.9656,249.8785,110.1922,0,U,58062,999,14700,6.557759e-05,1.5430000000000003e-05,0.0
STARLINK-30585,2023-158N,2026-06-07T10:18:05.935104,15.27564527,0.00020866,43.0075,240.3228,210.9453,149.1276,0,U,58063,999,14729,-5.3180374e-05,-1.7250000000000003e-05,0.0
STARLINK-30587,2023-158P,2026-06-07T22:14:21.975072,15.27564465,9.715e-05,42.9981,237.1756,265.3566,94.7175,0,U,58064,999,14737,7.655899e-06,-5.1e-07,0.0
STARLINK-30576,2023-158Q,2026-06-08T01:50:26.507616,15.2757649,0.00021449000000000001,43.0036,236.5908,286.3267,73.7348,0,U,58065,999,14739,0.00022448538,5.919000000000001e-05,0.0
STARLINK-30571,2023-158R,2026-06-05T13:02:22.825536,15.2759374,0.00012924,42.9993,251.1,252.8875,107.1835,0,U,58066,999,14700,0.00020182841,5.2980000000000004e-05,0.0
STARLINK-30567,2023-158S,2026-06-07T21:43:07.026816,15.2756999,8.133e-05,42.9984,237.8558,242.6993,117.3776,0,U,58067,999,14736,-8.6431176e-05,-2.6390000000000003e-05,0.0
STARLINK-30569,2023-158T,2026-06-07T22:45:06.145920,15.27578892,0.000233,43.0075,240.7396,265.1979,94.8607,0,U,58068,999,14733,2.6940111000000003e-05,4.79e-06,0.0
STARLINK-30480,2023-158U,2026-06-06T13:35:04.513344,15.27623374,0.00018759999999999998,43.0032,102.9035,243.2627,116.8033,0,U,58069,999,14883,-0.00032609,-9.237000000000001e-05,0.0
STARLINK-30532,2023-158V,2026-06-07T22:45:49.817664,15.2756165,0.00012017,43.0012,237.3285,193.8995,166.1824,0,U,58070,999,14737,-5.5692323000000005e-05,-1.7930000000000003e-05,0.0
STARLINK-30506,2023-158X,2026-06-07T12:01:31.622016,15.27570684,4.0050000000000004e-05,43.0016,239.987,194.9326,165.1514,0,U,58072,999,14730,-4.909463e-05,-1.612e-05,0.0
YUNHAI-1 04,2023-159A,2026-06-08T06:47:01.194144,14.32723929,9.948000000000002e-05,98.4983,185.1976,145.842,214.2828,0,U,58073,999,13852,0.00012751355,3.0399999999999997e-06,0.0
STARLINK-30604,2023-160A,2026-06-07T15:13:31.360800,15.27578607,0.00024044,43.004,289.7674,262.2586,97.7992,0,U,58075,999,14670,5.818340400000001e-05,1.339e-05,0.0
STARLINK-30500,2023-160B,2026-06-07T15:32:02.476896,15.2757815,0.00019855,43.007,289.8514,278.5942,81.4685,0,U,58076,999,14670,-1.4783431000000001e-05,-6.69e-06,0.0
STARLINK-30613,2023-160C,2026-06-07T15:22:46.898112,15.2756753,0.00041621000000000003,43.0011,289.8141,280.2786,79.7596,0,U,58077,999,14671,-3.7326064e-05,-1.2900000000000002e-05,0.0
