STARLINK-30548          
1 58046U 23156U   26159.14755367 -.00000982  00000+0 -17927-4 0  9991
2 58046  53.1623 107.2233 0001330 103.5062 256.6089 15.34401433148846
STARLINK-30529          
1 58047U 23156V   26159.11940657 -.00000887  00000+0 -17811-4 0  9993
2 58047  53.1612 108.4399 0001463  96.5820 263.5347 15.30191903148827
STARLINK-30554          
1 58048U 23156W   26159.14252770 -.00001423  00000+0 -35946-4 0  9995
2 58048  53.1604 107.8942 0001067  77.6248 282.4872 15.30188876148839
STARLINK-30568          
1 58051U 23158A   26158.91265437  .00002575  00000+0  10303-3 0  9995
2 58051  43.0078 237.9305 0000756 227.6807 132.3981 15.27587741147356
STARLINK-30575          
1 58052U 23158B   26158.51647615 -.00000675  00000+0 -14984-4 0  9995
2 58052  43.0003 240.1134 0002091 109.7510 250.3567 15.27574275147300
STARLINK-30577          
1 58053U 23158C   26158.94206765 -.00002217  00000+0 -71127-4 0  9996
2 58053  43.0020 237.2688 0000907 250.3822 109.6932 15.27560188147371
STARLINK-30566          
1 58054U 23158D   26158.93437414  .00133041  00000+0  47406-2 0  9992
2 58054  43.0001 237.2394 0003133  68.6456 291.4730 15.27695717147375
STARLINK-30544          
1 58055U 23158E   26158.92279781 -.00001685  00000+0 -51781-4 0  9996
2 58055  42.9981 237.1443 0000846 252.8825 107.1934 15.27560189147373
STARLINK-30553          
1 58056U 23158F   26158.93693656 -.00002065  00000+0 -65595-4 0  9990
2 58056  43.0019 237.2562 0000972 322.4319  37.6464 15.27561370147371
STARLINK-30541          
1 58057U 23158G   26158.93049620 -.00000013  00000+0  90427-5 0  9990
2 58057  43.0008 237.2058 0001623 256.0286 104.0385 15.27579287147376
STARLINK-30573          
1 58058U 23158H   26158.94077197  .00000818  00000+0  39245-4 0  9994
2 58058  43.0026 237.2758 0002288 253.2168 106.8433 15.27579001147378
STARLINK-30582          
1 58059U 23158J   26158.91894243 -.00001902  00000+0 -59665-4 0  9996
2 58059  43.0010 237.1166 0000950 263.3632  96.7111 15.27560915147370
STARLINK-30558          
1 58060U 23158K   26158.50876066  .00000802  00000+0  38639-4 0  9990
2 58060  43.0038 240.0451 0000764 144.3717 215.7186 15.27587003147302
STARLINK-30579          
1 58061U 23158L   26158.84389895  .00001382  00000+0  59711-4 0  9995
2 58061  43.0020 212.1010 0000877 291.7640  68.3118 15.27585424147652
STARLINK-30588          
1 58062U 23158M   26156.52532921  .00001543  00000+0  65578-4 0  9996
2 58062  43.0042 250.9656 0001349 249.8785 110.1922 15.27586705147003
STARLINK-30585          
1 58063U 23158N   26158.42923536 -.00001725  00000+0 -53180-4 0  9994
2 58063  43.0075 240.3228 0002086 210.9453 149.1276 15.27564527147291
STARLINK-30587          
1 58064U 23158P   26158.92664323 -.00000051  00000+0  76559-5 0  9992
2 58064  42.9981 237.1756 0000971 265.3566  94.7175 15.27564465147379
STARLINK-30576          
1 58065U 23158Q   26159.07669569  .00005919  00000+0  22449-3 0  9991
2 58065  43.0036 236.5908 0002144 286.3267  73.7348 15.27576490147392
STARLINK-30571          
1 58066U 23158R   26156.54331974  .00005298  00000+0  20183-3 0  9990
2 58066  42.9993 251.1000 0001292 252.8875 107.1835 15.27593740147003
STARLINK-30567          
1 58067U 23158S   26158.90494244 -.00002639  00000+0 -86431-4 0  9990
2 58067  42.9984 237.8558 0000813 242.6993 117.3776 15.27569990147365
STARLINK-30569          
1 58068U 23158T   26158.94798780  .00000479  00000+0  26940-4 0  9994
2 58068  43.0075 240.7396 0002330 265.1979  94.8607 15.27578892147332
STARLINK-30480          
1 58069U 23158U   26157.56602446 -.00009237  00000+0 -32609-3 0  9996
2 58069  43.0032 102.9035 0001876 243.2627 116.8033 15.27623374148836
STARLINK-30532          
1 58070U 23158V   26158.94849326 -.00001793  00000+0 -55692-4 0  9998
2 58070  43.0012 237.3285 0001201 193.8995 166.1824 15.27561650147378
STARLINK-30506          
1 58072U 23158X   26158.50106044 -.00001612  00000+0 -49095-4 0  9995
2 58072  43.0016 239.9870 0000400 194.9326 165.1514 15.27570684147307
YUNHAI-1 04             
1 58073U 23159A   26159.28265271  .00000304  00000+0  12751-3 0  9994
2 58073  98.4983 185.1976 0000994 145.8420 214.2828 14.32723929138527
STARLINK-30604          
1 58075U 23160A   26158.63439075  .00001339  00000+0  58183-4 0  9990
2 58075  43.0040 289.7674 0002404 262.2586  97.7992 15.27578607146701
STARLINK-30500          
1 58076U 23160B   26158.64725089 -.00000669  00000+0 -14783-4 0  9990
2 58076  43.0070 289.8514 0001985 278.5942  81.4685 15.27578150146700
STARLINK-30613          
1 58077U 23160C   26158.64082058 -.00001290  00000+0 -37326-4 0  9992
2 58077  43.0011 289.8141 0004162 280.2786  79.7596 15.27567530146710
